#aV2010  1 14  0  0   .00000000      96 DD+AD WGS84 FIT  NGA
## 1566 345600.00000000   900.00000000 55210  .0000000000000
+   32     1  2  3  4  5  6  7  8  9 10 11 12 13 14 15 16 17
+         18 19 20 21 22 23 24 25 26 27 28 29 30 31 32  0  0
+          0  0  0  0  0  0  0  0  0  0  0  0  0  0  0  0  0
+          0  0  0  0  0  0  0  0  0  0  0  0  0  0  0  0  0
+          0  0  0  0  0  0  0  0  0  0  0  0  0  0  0  0  0
++         0  0  0  0  0  0  0  0  0  0  0  0  0  0  0  0  0
++         0  0  0  0  0  0  0  0  0  0  0  0  0  0  0  0  0
++         0  0  0  0  0  0  0  0  0  0  0  0  0  0  0  0  0
++         0  0  0  0  0  0  0  0  0  0  0  0  0  0  0  0  0
++         0  0  0  0  0  0  0  0  0  0  0  0  0  0  0  0  0
%c cc cc ccc ccc cccc cccc cccc cccc ccccc ccccc ccccc ccccc
%c cc cc ccc ccc cccc cccc cccc cccc ccccc ccccc ccccc ccccc
%f  0.0000000  0.000000000  0.00000000000  0.000000000000000
%f  0.0000000  0.000000000  0.00000000000  0.000000000000000
%i    0    0    0    0      0      0      0      0         0
%i    0    0    0    0      0      0      0      0         0
/*      NGA, ST. LOUIS,MO.                                  
/*   EPHEMERIS COMPUTED FROM  3 DAYS OF DATA                
/* CCCCCCCCCCCCCCCCCCCCCCCCCCCCCCCCCCCCCCCCCCCCCCCCCCCCCCCCC
/* CCCCCCCCCCCCCCCCCCCCCCCCCCCCCCCCCCCCCCCCCCCCCCCCCCCCCCCCC
*  2010  1 14  3  0   .00000000                                                 
P  1  16959.218246  -9944.354854  17706.575320    -79.331557                    
V  1  -6530.801892  21823.563800  18514.622031      -.033213                    
P  2  12565.575725  22706.009983   6594.003198    215.221028                    
V  2  -7625.617285  -4556.945423  29507.368576       .043139                    
P  3 -11306.211410 -12947.270212 -20668.915579    501.657653                    
V  3  24355.004839  -7671.726232  -8317.602627       .052931                    
P  4    656.988565  20368.430055  16669.988786   -456.423229                    
V  4 -15462.050193 -15417.782690  19619.996134      -.191480                    
P  5   5245.393965  19642.908824 -17062.442905    -16.962003                    
V  5  -9455.374728  19579.139532  19736.869759       .038576                    
P  6  -6866.455399 -14455.320549 -21029.797198    260.187748                    
V  6  26553.805306  -5958.374887  -4425.227687      -.024502                    
P  7 -16164.535565   2769.350630 -20932.284046      4.383590                    
V  7 -16037.531064 -21105.146654   9443.091442      -.005878                    
P  8  -7549.989571  13661.737717 -21413.575850      2.114315                    
V  8 -16161.934500 -21852.747615  -8758.024165       .003461                    
P  9  20129.138479  14762.037679   8470.862705     99.870404                    
V  9   5908.958588  10279.483904 -29615.585005       .022587                    
P 10    751.125570  22860.363080 -13367.670817    -32.771471                    
V 10  -8815.067212  14576.946452  25100.959935      -.010488                    
P 11 -23365.410597  -8388.438976   9663.564001    -39.616168                    
V 11  -7329.464578 -11173.329354 -26352.852883      -.020241                    
P 12  14552.600617   4041.275137  21900.048812   -163.393935                    
V 12 -10006.981449  25774.154134   2030.436585       .049304                    
P 13 -25411.597277   5750.831125  -5321.330466    306.667345                    
V 13  -6692.705296  -1089.100337  31523.971982      -.000205                    
P 14  13306.780188 -13759.895117  18498.030492      -.230571                    
V 14  23167.523211  -1433.835662 -17982.176069       .044758                    
P 15  18809.499533   8714.410929 -16637.460909   -313.522314                    
V 15 -20529.011563   5421.832949 -20234.123456       .021076                    
P 16    799.552986 -23457.256562 -12132.522060    -30.290964                    
V 16   8091.466940 -13483.046753  26744.949954      -.041222                    
P 17 -11732.240849  14773.046325  18693.350094    120.936322                    
V 17 -23642.997917   1598.199838 -16375.756742       .034515                    
P 18  16806.096818 -15336.713384 -13137.254098     41.725026                    
V 18  -3805.894781  17150.419996 -24789.297388       .026558                    
P 19 -19823.348750  -9215.855699 -15246.063601     -9.471268                    
V 19  19110.559403  -3402.080513 -22456.103990      -.022243                    
P 20 -16406.883881    881.297727  20726.170063     63.393250                    
V 20   8105.580824 -25469.093071   7509.174164      -.007819                    
P 21  13998.889483  -7443.640103 -21049.674993    -33.863178                    
V 21  16831.321396  21742.189078   2832.541877      -.024430                    
P 22  11882.744180 -23569.708343  -2392.173110    181.575595                    
V 22   2075.243723   4403.253991 -31070.956503      -.010562                    
P 23 -25961.169349   -518.435727   6277.582167    382.392880                    
V 23   7524.334230  -3341.703006  30413.873010      -.008495                    
P 24  19580.017374   7283.321987 -16182.030210    253.601752                    
V 24  10363.586734  18211.269136  20873.992670       .032660                    
P 25 -19347.484824  -2757.687439 -17548.755354     78.718391                    
V 25 -14820.149143 -17695.773523  18941.887838       .083234                    
P 26  21978.340755  -9528.705170  11416.829926     -9.477612                    
V 26  15201.125716    -14.319197 -27503.508020      -.030192                    
P 27  20577.884371  15520.119087   7293.131990    116.963365                    
V 27   4066.599388   7504.323913 -30268.749363       .033668                    
P 28 -12972.979958  22429.708146  -4562.284889    -23.643480                    
V 28    -72.702539  -7011.228345 -31435.734099       .004722                    
P 29  26239.365824  -3861.401739   -804.843613     89.834215                    
V 29   1480.047325   2710.867829  31749.985297       .028745                    
P 30  16661.919202  -8157.685858  18600.611520    210.425911                    
V 30  -6305.710549  23694.237288  15773.991448       .034391                    
P 31  -3114.721243 -21115.315515  15921.613783    -55.450355                    
V 31  13730.729355  14434.693717  22285.566560       .013391                    
P 32 -12174.592114  -9833.529957  21849.632666    117.425823                    
V 32  11984.514999 -24034.754028  -3895.924926      -.080252                    
EOF
